DMSP 5D-3 F16 (USA 172) 
1 28054U 03048A   26161.52614102 -.00000007  00000+0  19763-4 0  9998
2 28054  98.9892 185.3103 0007425 157.5003 318.4455 14.14482582168549
METEOSAT-9 (MSG-2)      
1 28912U 05049B   26160.84991341  .00000137  00000+0  00000+0 0  9993
2 28912   9.3440  54.2378 0001663 349.5448 206.0776  1.00269219  6921
DMSP 5D-3 F17 (USA 191) 
1 29522U 06050A   26161.45211959  .00000015  00000+0  30283-4 0  9998
2 29522  98.7378 168.1600 0011309  76.6177 283.6256 14.14992132 11475
FENGYUN 3A              
1 32958U 08026A   26161.28090259  .00000057  00000+0  47348-4 0  9995
2 32958  98.6882 102.2433 0009299 141.9317 218.2518 14.19569781934420
GOES 14                 
1 35491U 09033A   26161.36876781 -.00000246  00000+0  00000+0 0  9990
2 35491   1.6715  83.1236 0001856   6.5937  87.5143  1.00113242  6522
DMSP 5D-3 F18 (USA 210) 
1 35951U 09057A   26161.49376507  .00000238  00000+0  14649-3 0  9990
2 35951  98.9035 142.2775 0009849 270.8454  89.1591 14.14893016858648
EWS-G2 (GOES 15)        
1 36411U 10008A   26161.42380743  .00000036  00000+0  00000+0 0  9998
2 36411   1.2581  82.9688 0005435  39.6409 352.3756  1.00275696 59576
COMS 1                  
1 36744U 10032A   26154.99142485 -.00000334  00000+0  00000+0 0  9999
2 36744   4.7750  75.5286 0001016   4.5847 297.3769  1.00270643 50953
FENGYUN 3B              
1 37214U 10059A   26161.52362525  .00000014  00000+0  30375-4 0  9994
2 37214  98.9625 207.5101 0021498 203.1448 262.9883 14.14839840806486
SUOMI NPP               
1 37849U 11061A   26161.50339223  .00000062  00000+0  50274-4 0  9992
2 37849  98.7953 102.4251 0001905  22.0599 338.0658 14.19516022757497
METEOSAT-10 (MSG-3)     
1 38552U 12035B   26161.34000110  .00000011  00000+0  00000+0 0  9999
2 38552   4.6545  61.0471 0001507 332.8996 347.4002  1.00275881 50783
METOP-B                 
1 38771U 12049A   26161.43205405  .00000082  00000+0  57227-4 0  9997
2 38771  98.6506 213.0658 0002633  35.6380 324.4973 14.21430846712304
INSAT-3D                
1 39216U 13038B   26161.43689416 -.00000322  00000+0  00000+0 0  9999
2 39216   1.9076  82.6248 0000701 314.7561 148.2194  1.00272678 47015
FENGYUN 3C              
1 39260U 13052A   26161.54184987  .00000079  00000+0  61057-4 0  9991
2 39260  98.4976 135.7219 0015571  45.7830 314.4621 14.15753525657624
METEOR-M 2              
1 40069U 14037A   26161.52893584  .00000094  00000+0  62394-4 0  9994
2 40069  98.5110 137.5032 0006975  60.2411 299.9460 14.21459926618374
HIMAWARI-8              
1 40267U 14060A   26161.36781448 -.00000258  00000+0  00000+0 0  9991
2 40267   0.0119 306.7201 0000780 160.0550  65.0330  1.00270252 42690
FENGYUN 2G              
1 40367U 14090A   26160.83345512 -.00000287  00000+0  00000+0 0  9996
2 40367   5.6193  72.9049 0003515 153.2834  71.6860  1.00276216 41926
METEOSAT-11 (MSG-4)     
1 40732U 15034A   26161.27051963  .00000081  00000+0  00000+0 0  9995
2 40732   3.1848  71.1496 0001721   7.0467 287.2978  1.00278178  7144
ELEKTRO-L 2             
1 41105U 15074A   26161.05176068 -.00000102  00000+0  00000+0 0  9999
2 41105   6.6749  70.6113 0000880 278.5236 273.4303  1.00271662 38437
SENTINEL-3A             
1 41335U 16011A   26161.48409646  .00000078  00000+0  50395-4 0  9992
2 41335  98.6249 228.9637 0001369 103.8143 256.3190 14.26738099537103
INSAT-3DR               
1 41752U 16054A   26161.45739475 -.00000059  00000+0  00000+0 0  9998
2 41752   0.0879  87.3314 0010512 186.7602 223.3726  1.00270374 35759
HIMAWARI-9              
1 41836U 16064A   26161.36781448 -.00000257  00000+0  00000+0 0  9999
2 41836   0.0325 157.0212 0000810 333.9577  40.9445  1.00271636 35143
GOES 16                 
1 41866U 16071A   26161.24786823 -.00000073  00000+0  00000+0 0  9995
2 41866   0.3220  85.5919 0000352 309.1594 208.4185  1.00270404 35039
FENGYUN 4A              
1 41882U 16077A   26161.53169770 -.00000340  00000+0  00000+0 0  9994
2 41882   2.3049  80.3651 0008572 152.3118 341.4068  1.00272319 34861
CYGFM05                 
1 41884U 16078A   26160.80367912  .00023758  00000+0  32575-3 0  9997
2 41884  34.9574 309.4711 0006816  74.5123 285.6354 15.56342667527605
CYGFM04                 
1 41885U 16078B   26161.43653113  .00031907  00000+0  36403-3 0  9998
2 41885  34.9326 273.3092 0006004 129.1542 230.9718 15.61147313527944
CYGFM02                 
1 41886U 16078C   26161.00323554  .00034699  00000+0  35324-3 0  9997
2 41886  34.9407 270.9423 0006964 125.7841 234.3534 15.64036400528048
CYGFM01                 
1 41887U 16078D   26161.11617237  .00025358  00000+0  33886-3 0  9997
2 41887  34.9405 308.5167 0006614  70.9828 289.1612 15.57023062527606
CYGFM08                 
1 41888U 16078E   26160.76764768  .00027832  00000+0  33670-3 0  9990
2 41888  34.9433 290.5994 0007798 102.5829 257.5769 15.59628728527810
CYGFM07                 
1 41890U 16078G   26161.43129647  .00029748  00000+0  35789-3 0  9990
2 41890  34.9447 274.5325 0006407 128.2062 231.9240 15.59776470527940
CYGFM03                 
1 41891U 16078H   26161.40226990  .00026685  00000+0  32149-3 0  9991
2 41891  34.9401 276.6645 0005914 114.1450 245.9894 15.59758876527913
